ONEWEB-0207             
1 48242U 21031AJ  24256.89633382  .00000281  00000+0  72232-3 0  9997
2 48242  87.8940  57.4185 0001745  86.2346 273.8984 13.14500986163912
ONEWEB-0208             
1 48243U 21031AK  24256.87808945 -.00000234  00000+0 -66480-3 0  9993
2 48243  87.8944  57.4367 0001910  94.4577 265.6771 13.14502035163921
ONEWEB-0200             
1 48244U 21031AL  24256.91775225  .00000075  00000+0  16688-3 0  9999
2 48244  87.8940  57.4250 0001916  95.7825 264.3523 13.14501731163850
ONEWEB-0217             
1 48245U 21031AM  24256.85749019 -.00000099  00000+0 -30114-3 0  9993
2 48245  87.8939  57.4214 0002022  97.9130 262.2229 13.14502104163799
ONEWEB-0211             
1 48767U 21045A   24256.86694081  .00000026  00000+0  34139-4 0  9996
2 48767  87.9086  26.9925 0001731 106.5493 253.5828 13.15549322159963
ONEWEB-0223             
1 48768U 21045B   24256.81307726  .00000245  00000+0  61731-3 0  9999
2 48768  87.9089  27.0134 0001818 119.5922 240.5389 13.15547779159948
ONEWEB-0230             
1 48769U 21045C   24256.86061714 -.00000028  00000+0 -10947-3 0  9993
2 48769  87.9086  27.0735 0001562  99.9190 260.2117 13.15549786160217
ONEWEB-0237             
1 48770U 21045D   24256.92558025 -.00000050  00000+0 -16694-3 0  9998
2 48770  87.9095  26.9971 0001753 112.5024 247.6292 13.15547814159940
